STARLINK-37170          
1 68614U 26073N   26106.92557844  .00163204  00000+0  83529-3 0  9997
2 68614  97.2849 304.5555 0002273  60.2004 299.9490 15.80857723  1570
