{
  "norad_id": 68614,
  "name": "STARLINK-37170",
  "history": [
    {
      "epoch": "2026-04-16T22:12:49.977216Z",
      "apogee_km": 329.53828428322686,
      "perigee_km": 326.48939986438654,
      "latitude_deg": -1.2354108310493544e-07,
      "longitude_deg": 126.28097152486222,
      "height_km": 330.4287779392912,
      "semi_major_axis_km": 6706.150842073806,
      "eccentricity": 0.00022732,
      "inclination_deg": 97.2849,
      "raan_deg": 304.5555,
      "arg_perigee_deg": 60.2004,
      "mean_anomaly_deg": 299.949,
      "mean_motion_rev_day": 15.80857723
    }
  ]
}